{
  "type": "FeatureCollection",
  "features": [
    {
      "type": "Feature",
      "properties": {
        "norad_id": 37238,
        "name": "INTELSAT 17 (IS-17)",
        "group": "intelsat",
        "lat": -0.014690758534789048,
        "lon": -85.62097683786865,
        "alt_km": 35775.2545105145,
        "timestamp": "2025-12-23T07:45:09.064367+00:00",
        "meta_object_name": "INTELSAT 17 (IS-17)",
        "meta_object_id": "2010-065B",
        "meta_epoch": "2025-12-22T22:02:18.444192",
        "meta_mean_motion": 1.00271253,
        "meta_eccentricity": 0.00026056,
        "meta_inclination": 0.0081,
        "meta_ra_of_asc_node": 298.9752,
        "meta_arg_of_pericenter": 342.1164,
        "meta_mean_anomaly": 207.1885,
        "meta_ephemeris_type": 0,
        "meta_classification_type": "U",
        "meta_norad_cat_id": 37238,
        "meta_element_set_no": 999,
        "meta_rev_at_epoch": 5148,
        "meta_bstar": 0,
        "meta_mean_motion_dot": 2e-07,
        "meta_mean_motion_ddot": 0,
        "tle_line1": "1 37238U 10065B   25356.91826903  .00000020  00000+0  00000+0 0  9994",
        "tle_line2": "2 37238   0.0081 298.9752 0002605 342.1164 207.1885  1.00271253 51480"
      },
      "geometry": {
        "type": "Point",
        "coordinates": [
          -85.62097683786865,
          -0.014690758534789048
        ]
      }
    },
    {
      "type": "Feature",
      "properties": {
        "norad_id": 37392,
        "name": "INTELSAT 28 (IS-28)",
        "group": "intelsat",
        "lat": 1.3557598098373782,
        "lon": 176.637374057356,
        "alt_km": 35789.05001982583,
        "timestamp": "2025-12-23T07:45:09.064379+00:00",
        "meta_object_name": "INTELSAT 28 (IS-28)",
        "meta_object_id": "2011-016A",
        "meta_epoch": "2025-12-22T18:09:03.279744",
        "meta_mean_motion": 1.0026908,
        "meta_eccentricity": 0.00037376,
        "meta_inclination": 1.3489,
        "meta_ra_of_asc_node": 84.9492,
        "meta_arg_of_pericenter": 190.2075,
        "meta_mean_anomaly": 56.9504,
        "meta_ephemeris_type": 0,
        "meta_classification_type": "U",
        "meta_norad_cat_id": 37392,
        "meta_element_set_no": 999,
        "meta_rev_at_epoch": 5151,
        "meta_bstar": 0,
        "meta_mean_motion_dot": -2.04e-06,
        "meta_mean_motion_ddot": 0,
        "tle_line1": "1 37392U 11016A   25356.75628796 -.00000204  00000+0  00000+0 0  9999",
        "tle_line2": "2 37392   1.3489  84.9492 0003737 190.2075  56.9504  1.00269080 51518"
      },
      "geometry": {
        "type": "Point",
        "coordinates": [
          176.637374057356,
          1.3557598098373782
        ]
      }
    },
    {
      "type": "Feature",
      "properties": {
        "norad_id": 37834,
        "name": "INTELSAT 18 (IS-18)",
        "group": "intelsat",
        "lat": 0.026217555648238147,
        "lon": 28.411617402425474,
        "alt_km": 35787.720433243776,
        "timestamp": "2025-12-23T07:45:09.064391+00:00",
        "meta_object_name": "INTELSAT 18 (IS-18)",
        "meta_object_id": "2011-056A",
        "meta_epoch": "2025-12-22T19:09:27.496224",
        "meta_mean_motion": 1.00271314,
        "meta_eccentricity": 0.00017281,
        "meta_inclination": 0.0276,
        "meta_ra_of_asc_node": 283.5388,
        "meta_arg_of_pericenter": 2.7556,
        "meta_mean_anomaly": 272.6648,
        "meta_ephemeris_type": 0,
        "meta_classification_type": "U",
        "meta_norad_cat_id": 37834,
        "meta_element_set_no": 999,
        "meta_rev_at_epoch": 5204,
        "meta_bstar": 0,
        "meta_mean_motion_dot": 7.4e-07,
        "meta_mean_motion_ddot": 0,
        "tle_line1": "1 37834U 11056A   25356.79823491  .00000074  00000+0  00000+0 0  9991",
        "tle_line2": "2 37834   0.0276 283.5388 0001728   2.7556 272.6648  1.00271314 52047"
      },
      "geometry": {
        "type": "Point",
        "coordinates": [
          28.411617402425474,
          0.026217555648238147
        ]
      }
    },
    {
      "type": "Feature",
      "properties": {
        "norad_id": 38098,
        "name": "INTELSAT 22 (IS-22)",
        "group": "intelsat",
        "lat": -0.04588433385881346,
        "lon": -79.5261189359171,
        "alt_km": 35778.59506406205,
        "timestamp": "2025-12-23T07:45:09.064403+00:00",
        "meta_object_name": "INTELSAT 22 (IS-22)",
        "meta_object_id": "2012-011A",
        "meta_epoch": "2025-12-22T22:04:03.275904",
        "meta_mean_motion": 1.00270342,
        "meta_eccentricity": 0.00019425,
        "meta_inclination": 0.0255,
        "meta_ra_of_asc_node": 36.1287,
        "meta_arg_of_pericenter": 260.6462,
        "meta_mean_anomaly": 198.0421,
        "meta_ephemeris_type": 0,
        "meta_classification_type": "U",
        "meta_norad_cat_id": 38098,
        "meta_element_set_no": 999,
        "meta_rev_at_epoch": 542,
        "meta_bstar": 0,
        "meta_mean_motion_dot": 0,
        "meta_mean_motion_ddot": 0,
        "tle_line1": "1 38098U 12011A   25356.91948236  .00000000  00000+0  00000+0 0  9994",
        "tle_line2": "2 38098   0.0255  36.1287 0001942 260.6462 198.0421  1.00270342  5426"
      },
      "geometry": {
        "type": "Point",
        "coordinates": [
          -79.5261189359171,
          -0.04588433385881346
        ]
      }
    },
    {
      "type": "Feature",
      "properties": {
        "norad_id": 38356,
        "name": "INTELSAT 19 (IS-19)",
        "group": "intelsat",
        "lat": 0.01887580958208579,
        "lon": 14.429898488268899,
        "alt_km": 35789.40183324959,
        "timestamp": "2025-12-23T07:45:09.064415+00:00",
        "meta_object_name": "INTELSAT 19 (IS-19)",
        "meta_object_id": "2012-030A",
        "meta_epoch": "2025-12-22T12:14:29.729184",
        "meta_mean_motion": 1.00272136,
        "meta_eccentricity": 0.00028333,
        "meta_inclination": 0.0186,
        "meta_ra_of_asc_node": 312.8711,
        "meta_arg_of_pericenter": 314.85,
        "meta_mean_anomaly": 173.2179,
        "meta_ephemeris_type": 0,
        "meta_classification_type": "U",
        "meta_norad_cat_id": 38356,
        "meta_element_set_no": 999,
        "meta_rev_at_epoch": 4868,
        "meta_bstar": 0,
        "meta_mean_motion_dot": -3.5e-07,
        "meta_mean_motion_ddot": 0,
        "tle_line1": "1 38356U 12030A   25356.51006631 -.00000035  00000+0  00000+0 0  9991",
        "tle_line2": "2 38356   0.0186 312.8711 0002833 314.8500 173.2179  1.00272136 48680"
      },
      "geometry": {
        "type": "Point",
        "coordinates": [
          14.429898488268899,
          0.01887580958208579
        ]
      }
    },
    {
      "type": "Feature",
      "properties": {
        "norad_id": 38740,
        "name": "INTELSAT 20 (IS-20)",
        "group": "intelsat",
        "lat": -0.023768261875432545,
        "lon": -83.07883376643696,
        "alt_km": 35786.833591495386,
        "timestamp": "2025-12-23T07:45:09.064427+00:00",
        "meta_object_name": "INTELSAT 20 (IS-20)",
        "meta_object_id": "2012-043A",
        "meta_epoch": "2025-12-22T22:03:03.372192",
        "meta_mean_motion": 1.00272008,
        "meta_eccentricity": 0.00030993,
        "meta_inclination": 0.0099,
        "meta_ra_of_asc_node": 57.7411,
        "meta_arg_of_pericenter": 125.5263,
        "meta_mean_anomaly": 307.7027,
        "meta_ephemeris_type": 0,
        "meta_classification_type": "U",
        "meta_norad_cat_id": 38740,
        "meta_element_set_no": 999,
        "meta_rev_at_epoch": 4898,
        "meta_bstar": 0,
        "meta_mean_motion_dot": -3e-08,
        "meta_mean_motion_ddot": 0,
        "tle_line1": "1 38740U 12043A   25356.91878903 -.00000003  00000+0  00000+0 0  9990",
        "tle_line2": "2 38740   0.0099  57.7411 0003099 125.5263 307.7027  1.00272008 48987"
      },
      "geometry": {
        "type": "Point",
        "coordinates": [
          -83.07883376643696,
          -0.023768261875432545
        ]
      }
    },
    {
      "type": "Feature",
      "properties": {
        "norad_id": 38749,
        "name": "INTELSAT 21 (IS-21)",
        "group": "intelsat",
        "lat": 0.000836242111997888,
        "lon": 150.37990114285182,
        "alt_km": 35789.11037946002,
        "timestamp": "2025-12-23T07:45:09.064438+00:00",
        "meta_object_name": "INTELSAT 21 (IS-21)",
        "meta_object_id": "2012-045A",
        "meta_epoch": "2025-12-22T21:26:59.326080",
        "meta_mean_motion": 1.0027117,
        "meta_eccentricity": 0.00015376,
        "meta_inclination": 0.0185,
        "meta_ra_of_asc_node": 298.7128,
        "meta_arg_of_pericenter": 327.1115,
        "meta_mean_anomaly": 89.6157,
        "meta_ephemeris_type": 0,
        "meta_classification_type": "U",
        "meta_norad_cat_id": 38749,
        "meta_element_set_no": 999,
        "meta_rev_at_epoch": 4875,
        "meta_bstar": 0,
        "meta_mean_motion_dot": -2.63e-06,
        "meta_mean_motion_ddot": 0,
        "tle_line1": "1 38749U 12045A   25356.89374220 -.00000263  00000+0  00000+0 0  9999",
        "tle_line2": "2 38749   0.0185 298.7128 0001537 327.1115  89.6157  1.00271170 48759"
      },
      "geometry": {
        "type": "Point",
        "coordinates": [
          150.37990114285182,
          0.000836242111997888
        ]
      }
    }
  ]
}